{
  "type": "FeatureCollection",
  "features": [
    {
      "type": "Feature",
      "properties": {
        "norad_id": 36585,
        "name": "GPS BIIF-1  (PRN 25)",
        "group": "gnss",
        "lat": -33.237264624837294,
        "lon": -171.62365807427872,
        "alt_km": 20283.09530492036,
        "timestamp": "2025-12-03T10:52:57.692821+00:00",
        "meta_object_name": "GPS BIIF-1  (PRN 25)",
        "meta_object_id": "2010-022A",
        "meta_epoch": "2025-12-02T06:20:52.766304",
        "meta_mean_motion": 2.00552564,
        "meta_eccentricity": 0.0125665,
        "meta_inclination": 54.3023,
        "meta_ra_of_asc_node": 216.4964,
        "meta_arg_of_pericenter": 64.9581,
        "meta_mean_anomaly": 115.6293,
        "meta_ephemeris_type": 0,
        "meta_classification_type": "U",
        "meta_norad_cat_id": 36585,
        "meta_element_set_no": 999,
        "meta_rev_at_epoch": 11364,
        "meta_bstar": 0,
        "meta_mean_motion_dot": 6.7e-07,
        "meta_mean_motion_ddot": 0,
        "tle_line1": "1 36585U 10022A   25336.26449961  .00000067  00000+0  00000+0 0  9993",
        "tle_line2": "2 36585  54.3023 216.4964 0125665  64.9581 115.6293  2.00552564113647"
      },
      "geometry": {
        "type": "Point",
        "coordinates": [
          -171.62365807427872,
          -33.237264624837294
        ]
      }
    },
    {
      "type": "Feature",
      "properties": {
        "norad_id": 36828,
        "name": "BEIDOU-2 IGSO-1 (C06)",
        "group": "gnss",
        "lat": 1.2906203815058883,
        "lon": -16.200071457139504,
        "alt_km": 35612.74929676616,
        "timestamp": "2025-12-03T10:52:57.692834+00:00",
        "meta_object_name": "BEIDOU-2 IGSO-1 (C06)",
        "meta_object_id": "2010-036A",
        "meta_epoch": "2025-12-02T23:10:21.569952",
        "meta_mean_motion": 1.00278743,
        "meta_eccentricity": 0.0051275,
        "meta_inclination": 54.2836,
        "meta_ra_of_asc_node": 164.7371,
        "meta_arg_of_pericenter": 215.7816,
        "meta_mean_anomaly": 146.8764,
        "meta_ephemeris_type": 0,
        "meta_classification_type": "U",
        "meta_norad_cat_id": 36828,
        "meta_element_set_no": 999,
        "meta_rev_at_epoch": 5613,
        "meta_bstar": 0,
        "meta_mean_motion_dot": -2e-07,
        "meta_mean_motion_ddot": 0,
        "tle_line1": "1 36828U 10036A   25336.96552743 -.00000020  00000+0  00000+0 0  9998",
        "tle_line2": "2 36828  54.2836 164.7371 0051275 215.7816 146.8764  1.00278743 56139"
      },
      "geometry": {
        "type": "Point",
        "coordinates": [
          -16.200071457139504,
          1.2906203815058883
        ]
      }
    },
    {
      "type": "Feature",
      "properties": {
        "norad_id": 37210,
        "name": "BEIDOU-2 G4 (C04)",
        "group": "gnss",
        "lat": -1.7437641694588488,
        "lon": 35.95616323391739,
        "alt_km": 35820.57735886896,
        "timestamp": "2025-12-03T10:52:57.692846+00:00",
        "meta_object_name": "BEIDOU-2 G4 (C04)",
        "meta_object_id": "2010-057A",
        "meta_epoch": "2025-12-03T04:14:41.515296",
        "meta_mean_motion": 1.00271337,
        "meta_eccentricity": 0.001089,
        "meta_inclination": 3.159,
        "meta_ra_of_asc_node": 69.9613,
        "meta_arg_of_pericenter": 188.3007,
        "meta_mean_anomaly": 37.7516,
        "meta_ephemeris_type": 0,
        "meta_classification_type": "U",
        "meta_norad_cat_id": 37210,
        "meta_element_set_no": 999,
        "meta_rev_at_epoch": 5532,
        "meta_bstar": 0,
        "meta_mean_motion_dot": -9.4e-07,
        "meta_mean_motion_ddot": 0,
        "tle_line1": "1 37210U 10057A   25337.17686939 -.00000094  00000+0  00000+0 0  9997",
        "tle_line2": "2 37210   3.1590  69.9613 0010890 188.3007  37.7516  1.00271337 55320"
      },
      "geometry": {
        "type": "Point",
        "coordinates": [
          35.95616323391739,
          -1.7437641694588488
        ]
      }
    },
    {
      "type": "Feature",
      "properties": {
        "norad_id": 37256,
        "name": "BEIDOU-2 IGSO-2 (C07)",
        "group": "gnss",
        "lat": 43.66388093017502,
        "lon": -26.342581880384998,
        "alt_km": 35951.231790453225,
        "timestamp": "2025-12-03T10:52:57.692858+00:00",
        "meta_object_name": "BEIDOU-2 IGSO-2 (C07)",
        "meta_object_id": "2010-068A",
        "meta_epoch": "2025-12-02T18:32:21.656832",
        "meta_mean_motion": 1.00289076,
        "meta_eccentricity": 0.0049278,
        "meta_inclination": 47.9063,
        "meta_ra_of_asc_node": 274.2734,
        "meta_arg_of_pericenter": 216.2016,
        "meta_mean_anomaly": 326.6202,
        "meta_ephemeris_type": 0,
        "meta_classification_type": "U",
        "meta_norad_cat_id": 37256,
        "meta_element_set_no": 999,
        "meta_rev_at_epoch": 5482,
        "meta_bstar": 0,
        "meta_mean_motion_dot": -2.27e-06,
        "meta_mean_motion_ddot": 0,
        "tle_line1": "1 37256U 10068A   25336.77247288 -.00000227  00000+0  00000+0 0  9992",
        "tle_line2": "2 37256  47.9063 274.2734 0049278 216.2016 326.6202  1.00289076 54824"
      },
      "geometry": {
        "type": "Point",
        "coordinates": [
          -26.342581880384998,
          43.66388093017502
        ]
      }
    },
    {
      "type": "Feature",
      "properties": {
        "norad_id": 37384,
        "name": "BEIDOU-2 IGSO-3 (C08)",
        "group": "gnss",
        "lat": -48.72971316702464,
        "lon": 5.052309936433634,
        "alt_km": 35856.546927850904,
        "timestamp": "2025-12-03T10:52:57.692871+00:00",
        "meta_object_name": "BEIDOU-2 IGSO-3 (C08)",
        "meta_object_id": "2011-013A",
        "meta_epoch": "2025-11-29T21:04:05.094336",
        "meta_mean_motion": 1.00273417,
        "meta_eccentricity": 0.00356655,
        "meta_inclination": 62.1255,
        "meta_ra_of_asc_node": 42.0418,
        "meta_arg_of_pericenter": 186.0158,
        "meta_mean_anomaly": 264.7363,
        "meta_ephemeris_type": 0,
        "meta_classification_type": "U",
        "meta_norad_cat_id": 37384,
        "meta_element_set_no": 999,
        "meta_rev_at_epoch": 5366,
        "meta_bstar": 0,
        "meta_mean_motion_dot": -1.94e-06,
        "meta_mean_motion_ddot": 0,
        "tle_line1": "1 37384U 11013A   25333.87783674 -.00000194  00000+0  00000+0 0  9990",
        "tle_line2": "2 37384  62.1255  42.0418 0035665 186.0158 264.7363  1.00273417 53667"
      },
      "geometry": {
        "type": "Point",
        "coordinates": [
          5.052309936433634,
          -48.72971316702464
        ]
      }
    },
    {
      "type": "Feature",
      "properties": {
        "norad_id": 37605,
        "name": "GSAT-8 (GAGAN/PRN 127)",
        "group": "gnss",
        "lat": -0.7399647170050018,
        "lon": -69.115823638173,
        "alt_km": 35752.7259762378,
        "timestamp": "2025-12-03T10:52:57.692885+00:00",
        "meta_object_name": "GSAT-8 (GAGAN/PRN 127)",
        "meta_object_id": "2011-022A",
        "meta_epoch": "2025-12-03T02:01:57.855360",
        "meta_mean_motion": 1.00272588,
        "meta_eccentricity": 0.0009,
        "meta_inclination": 1.6227,
        "meta_ra_of_asc_node": 84.2958,
        "meta_arg_of_pericenter": 177.2344,
        "meta_mean_anomaly": 256.2206,
        "meta_ephemeris_type": 0,
        "meta_classification_type": "U",
        "meta_norad_cat_id": 37605,
        "meta_element_set_no": 999,
        "meta_rev_at_epoch": 5125,
        "meta_bstar": 0,
        "meta_mean_motion_dot": 1.03e-06,
        "meta_mean_motion_ddot": 0,
        "tle_line1": "1 37605U 11022A   25337.08469740  .00000103  00000+0  00000+0 0  9997",
        "tle_line2": "2 37605   1.6227  84.2958 0009000 177.2344 256.2206  1.00272588 51253"
      },
      "geometry": {
        "type": "Point",
        "coordinates": [
          -69.115823638173,
          -0.7399647170050018
        ]
      }
    },
    {
      "type": "Feature",
      "properties": {
        "norad_id": 37763,
        "name": "BEIDOU-2 IGSO-4 (C09)",
        "group": "gnss",
        "lat": 15.541977570742327,
        "lon": -24.002509100044726,
        "alt_km": 35553.57422049989,
        "timestamp": "2025-12-03T10:52:57.692898+00:00",
        "meta_object_name": "BEIDOU-2 IGSO-4 (C09)",
        "meta_object_id": "2011-038A",
        "meta_epoch": "2025-12-01T12:32:09.960864",
        "meta_mean_motion": 1.00284074,
        "meta_eccentricity": 0.0148781,
        "meta_inclination": 54.5808,
        "meta_ra_of_asc_node": 167.4476,
        "meta_arg_of_pericenter": 230.2031,
        "meta_mean_anomaly": 315.0387,
        "meta_ephemeris_type": 0,
        "meta_classification_type": "U",
        "meta_norad_cat_id": 37763,
        "meta_element_set_no": 999,
        "meta_rev_at_epoch": 5266,
        "meta_bstar": 0,
        "meta_mean_motion_dot": 1.01e-06,
        "meta_mean_motion_ddot": 0,
        "tle_line1": "1 37763U 11038A   25335.52233751  .00000101  00000+0  00000+0 0  9995",
        "tle_line2": "2 37763  54.5808 167.4476 0148781 230.2031 315.0387  1.00284074 52665"
      },
      "geometry": {
        "type": "Point",
        "coordinates": [
          -24.002509100044726,
          15.541977570742327
        ]
      }
    }
  ]
}